start=new Date('2022-01-30T00:00:00.000Z').valueOf();
sats=[{"ECCENTRICITY":"0.00015430","APOAPSIS":"548.249","CLASSIFICATION_TYPE":"U","EPOCH":"2022-01-29T09:20:45.818880","COUNTRY_CODE":"US","MEAN_MOTION_DOT":"0.00001679","RA_OF_ASC_NODE":"21.7384","CENTER_NAME":"EARTH","TIME_SYSTEM":"UTC","ARG_OF_PERICENTER":"73.5227","RCS_SIZE":"LARGE","REV_AT_EPOCH":"8275","BSTAR":"0.00013158000000","FILE":"3286885","OBJECT_TYPE":"PAYLOAD","MEAN_MOTION":"15.06410778","TLE_LINE1":"1 46043U 20055S   22029.38941920  .00001679  00000-0  13158-3 0  9994","OBJECT_ID":"2020-055S","ELEMENT_SET_NO":"999","SEMIMAJOR_AXIS":"6925.316","SITE":"AFETR","REF_FRAME":"TEME","OBJECT_NAME":"STARLINK-1582","LAUNCH_DATE":"2020-08-07","GP_ID":"194882189","DECAY_DATE":null,"MEAN_ANOMALY":"286.5931","PERIOD":"95.591","INCLINATION":"53.0556","PERIAPSIS":"546.112","MEAN_ELEMENT_THEORY":"SGP4","MEAN_MOTION_DDOT":"0.0000000000000","NORAD_CAT_ID":"46043","TLE_LINE2":"2 46043  53.0556  21.7384 0001543  73.5227 286.5931 15.06410778 82752","EPHEMERIS_TYPE":"0"},{"REV_AT_EPOCH":"8284","RCS_SIZE":"LARGE","ARG_OF_PERICENTER":"68.7696","TIME_SYSTEM":"UTC","CENTER_NAME":"EARTH","RA_OF_ASC_NODE":"19.2762","COUNTRY_CODE":"US","MEAN_MOTION_DOT":"0.00001288","CLASSIFICATION_TYPE":"U","APOAPSIS":"548.345","ECCENTRICITY":"0.00015940","EPOCH":"2022-01-29T22:26:19.632480","EPHEMERIS_TYPE":"0","TLE_LINE2":"2 46044  53.0558  19.2762 0001594  68.7696 291.3464 15.06390877 82841","NORAD_CAT_ID":"46044","PERIAPSIS":"546.138","MEAN_ELEMENT_THEORY":"SGP4","INCLINATION":"53.0558","PERIOD":"95.593","MEAN_ANOMALY":"291.3464","DECAY_DATE":null,"MEAN_MOTION_DDOT":"0.0000000000000","SEMIMAJOR_AXIS":"6925.377","SITE":"AFETR","REF_FRAME":"TEME","OBJECT_NAME":"STARLINK-1584","GP_ID":"194910704","LAUNCH_DATE":"2020-08-07","TLE_LINE1":"1 46044U 20055T   22029.93494945  .00001288  00000-0  10540-3 0  9994","MEAN_MOTION":"15.06390877","OBJECT_TYPE":"PAYLOAD","BSTAR":"0.00010540000000","FILE":"3287083","ELEMENT_SET_NO":"999","OBJECT_ID":"2020-055T"},{"OBJECT_ID":"2020-055U","ELEMENT_SET_NO":"999","FILE":"3287083","BSTAR":"0.00019731000000","OBJECT_TYPE":"PAYLOAD","MEAN_MOTION":"15.06397645","TLE_LINE1":"1 46045U 20055U   22029.87965799  .00002658  00000-0  19731-3 0  9991","LAUNCH_DATE":"2020-08-07","GP_ID":"194910955","SEMIMAJOR_AXIS":"6925.356","SITE":"AFETR","REF_FRAME":"TEME","OBJECT_NAME":"STARLINK-1591","MEAN_MOTION_DDOT":"0.0000000000000","DECAY_DATE":null,"PERIOD":"95.592","MEAN_ANOMALY":"283.9109","INCLINATION":"53.0554","PERIAPSIS":"546.142","MEAN_ELEMENT_THEORY":"SGP4","NORAD_CAT_ID":"46045","EPHEMERIS_TYPE":"0","TLE_LINE2":"2 46045  53.0554  19.5275 0001558  76.2053 283.9109 15.06397645 82811","EPOCH":"2022-01-29T21:06:42.450336","APOAPSIS":"548.300","ECCENTRICITY":"0.00015580","CLASSIFICATION_TYPE":"U","MEAN_MOTION_DOT":"0.00002658","COUNTRY_CODE":"US","RA_OF_ASC_NODE":"19.5275","CENTER_NAME":"EARTH","TIME_SYSTEM":"UTC","ARG_OF_PERICENTER":"76.2053","RCS_SIZE":"LARGE","REV_AT_EPOCH":"8281"},{"REV_AT_EPOCH":"8354","RCS_SIZE":"LARGE","ARG_OF_PERICENTER":"92.7675","TIME_SYSTEM":"UTC","CENTER_NAME":"EARTH","RA_OF_ASC_NODE":"326.5667","MEAN_MOTION_DOT":"0.00037293","COUNTRY_CODE":"US","EPOCH":"2022-01-29T19:30:06.021216","CLASSIFICATION_TYPE":"U","ECCENTRICITY":"0.00059480","APOAPSIS":"393.939","TLE_LINE2":"2 46046  53.0558 326.5667 0005948  92.7675 267.4018 15.59220766 83546","EPHEMERIS_TYPE":"0","NORAD_CAT_ID":"46046","MEAN_MOTION_DDOT":"0.0000000000000","PERIAPSIS":"385.887","MEAN_ELEMENT_THEORY":"SGP4","INCLINATION":"53.0558","MEAN_ANOMALY":"267.4018","PERIOD":"92.354","DECAY_DATE":null,"GP_ID":"194912206","LAUNCH_DATE":"2020-08-07","SITE":"AFETR","SEMIMAJOR_AXIS":"6768.048","OBJECT_NAME":"STARLINK-1514","REF_FRAME":"TEME","ELEMENT_SET_NO":"999","OBJECT_ID":"2020-055V","TLE_LINE1":"1 46046U 20055V   22029.81256969  .00037293  00000-0  47059-3 0  9995","OBJECT_TYPE":"PAYLOAD","MEAN_MOTION":"15.59220766","BSTAR":"0.00047059000000","FILE":"3287083"},{"EPOCH":"2022-01-29T18:23:28.747680","APOAPSIS":"548.229","ECCENTRICITY":"0.00014990","CLASSIFICATION_TYPE":"U","MEAN_MOTION_DOT":"0.00001640","COUNTRY_CODE":"US","RA_OF_ASC_NODE":"10.0512","CENTER_NAME":"EARTH","TIME_SYSTEM":"UTC","ARG_OF_PERICENTER":"67.0044","RCS_SIZE":"LARGE","REV_AT_EPOCH":"8295","OBJECT_ID":"2020-055W","ELEMENT_SET_NO":"999","BSTAR":"0.00012893000000","FILE":"3287083","OBJECT_TYPE":"PAYLOAD","MEAN_MOTION":"15.06407501","TLE_LINE1":"1 46047U 20055W   22029.76630495  .00001640  00000-0  12893-3 0  9995","LAUNCH_DATE":"2020-08-07","GP_ID":"194911957","SITE":"AFETR","OBJECT_NAME":"STARLINK-1524","SEMIMAJOR_AXIS":"6925.326","REF_FRAME":"TEME","MEAN_MOTION_DDOT":"0.0000000000000","DECAY_DATE":null,"PERIOD":"95.592","MEAN_ANOMALY":"293.1103","INCLINATION":"53.0547","MEAN_ELEMENT_THEORY":"SGP4","PERIAPSIS":"546.152","NORAD_CAT_ID":"46047","TLE_LINE2":"2 46047  53.0547  10.0512 0001499  67.0044 293.1103 15.06407501 82952","EPHEMERIS_TYPE":"0"},{"TLE_LINE1":"1 46048U 20055X   22029.62993684  .00000105  00000-0  25983-4 0  9993","MEAN_MOTION":"15.06393444","OBJECT_TYPE":"PAYLOAD","BSTAR":"0.00002598300000","FILE":"3287083","ELEMENT_SET_NO":"999","OBJECT_ID":"2020-055X","SEMIMAJOR_AXIS":"6925.369","SITE":"AFETR","REF_FRAME":"TEME","OBJECT_NAME":"STARLINK-1527","GP_ID":"194911204","LAUNCH_DATE":"2020-08-07","PERIAPSIS":"546.164","MEAN_ELEMENT_THEORY":"SGP4","INCLINATION":"53.0570","PERIOD":"95.593","MEAN_ANOMALY":"289.4591","DECAY_DATE":null,"MEAN_MOTION_DDOT":"0.0000000000000","TLE_LINE2":"2 46048  53.0570  10.6467 0001544  70.6565 289.4591 15.06393444 82918","EPHEMERIS_TYPE":"0","NORAD_CAT_ID":"46048","CLASSIFICATION_TYPE":"U","APOAPSIS":"548.303","ECCENTRICITY":"0.00015440","EPOCH":"2022-01-29T15:07:06.542976","COUNTRY_CODE":"US","MEAN_MOTION_DOT":"0.00000105","CENTER_NAME":"EARTH","RA_OF_ASC_NODE":"10.6467","REV_AT_EPOCH":"8291","RCS_SIZE":"LARGE","ARG_OF_PERICENTER":"70.6565","TIME_SYSTEM":"UTC"},{"TLE_LINE1":"1 46049U 20055Y   22029.36086367 -.00001051  00000-0 -51676-4 0  9997","OBJECT_TYPE":"PAYLOAD","MEAN_MOTION":"15.06392675","FILE":"3286885","BSTAR":"-0.00005167600000","ELEMENT_SET_NO":"999","OBJECT_ID":"2020-055Y","SITE":"AFETR","REF_FRAME":"TEME","SEMIMAJOR_AXIS":"6925.371","OBJECT_NAME":"STARLINK-1530","GP_ID":"194881689","LAUNCH_DATE":"2020-08-07","PERIAPSIS":"546.188","MEAN_ELEMENT_THEORY":"SGP4","INCLINATION":"53.0562","PERIOD":"95.593","MEAN_ANOMALY":"299.0618","DECAY_DATE":null,"MEAN_MOTION_DDOT":"0.0000000000000","TLE_LINE2":"2 46049  53.0562  11.8617 0001513  61.0523 299.0618 15.06392675 82905","EPHEMERIS_TYPE":"0","NORAD_CAT_ID":"46049","CLASSIFICATION_TYPE":"U","APOAPSIS":"548.284","ECCENTRICITY":"0.00015130","EPOCH":"2022-01-29T08:39:38.621088","COUNTRY_CODE":"US","MEAN_MOTION_DOT":"-0.00001051","CENTER_NAME":"EARTH","RA_OF_ASC_NODE":"11.8617","REV_AT_EPOCH":"8290","RCS_SIZE":"LARGE","ARG_OF_PERICENTER":"61.0523","TIME_SYSTEM":"UTC"},{"EPOCH":"2022-01-29T06:21:37.159488","ECCENTRICITY":"0.00015320","APOAPSIS":"548.257","CLASSIFICATION_TYPE":"U","MEAN_MOTION_DOT":"0.00001613","COUNTRY_CODE":"US","RA_OF_ASC_NODE":"12.2877","CENTER_NAME":"EARTH","ARG_OF_PERICENTER":"75.8016","TIME_SYSTEM":"UTC","REV_AT_EPOCH":"8289","RCS_SIZE":"LARGE","OBJECT_ID":"2020-055AA","ELEMENT_SET_NO":"999","BSTAR":"0.00012711000000","FILE":"3286885","TLE_LINE1":"1 46051U 20055AA  22029.26501342  .00001613  00000-0  12711-3 0  9992","MEAN_MOTION":"15.06405675","OBJECT_TYPE":"PAYLOAD","GP_ID":"194881939","LAUNCH_DATE":"2020-08-07","SEMIMAJOR_AXIS":"6925.331","SITE":"AFETR","OBJECT_NAME":"STARLINK-1540","REF_FRAME":"TEME","MEAN_MOTION_DDOT":"0.0000000000000","PERIOD":"95.592","MEAN_ANOMALY":"284.3143","DECAY_DATE":null,"PERIAPSIS":"546.135","MEAN_ELEMENT_THEORY":"SGP4","INCLINATION":"53.0555","TLE_LINE2":"2 46051  53.0555  12.2877 0001532  75.8016 284.3143 15.06405675 82897","EPHEMERIS_TYPE":"0","NORAD_CAT_ID":"46051"},{"EPHEMERIS_TYPE":"0","TLE_LINE2":"2 46052  53.0548   9.3684 0001532  79.0011 281.1150 15.06400580 82954","NORAD_CAT_ID":"46052","MEAN_MOTION_DDOT":"0.0000000000000","MEAN_ANOMALY":"281.1150","PERIOD":"95.592","DECAY_DATE":null,"MEAN_ELEMENT_THEORY":"SGP4","PERIAPSIS":"546.151","INCLINATION":"53.0548","GP_ID":"194912457","LAUNCH_DATE":"2020-08-07","OBJECT_NAME":"STARLINK-1541","SITE":"AFETR","SEMIMAJOR_AXIS":"6925.347","REF_FRAME":"TEME","OBJECT_ID":"2020-055AB","ELEMENT_SET_NO":"999","FILE":"3287083","BSTAR":"0.00011338000000","TLE_LINE1":"1 46052U 20055AB  22029.91375390  .00001408  00000-0  11338-3 0  9993","OBJECT_TYPE":"PAYLOAD","MEAN_MOTION":"15.06400580","ARG_OF_PERICENTER":"79.0011","TIME_SYSTEM":"UTC","REV_AT_EPOCH":"8295","RCS_SIZE":"LARGE","RA_OF_ASC_NODE":"9.3684","CENTER_NAME":"EARTH","MEAN_MOTION_DOT":"0.00001408","COUNTRY_CODE":"US","EPOCH":"2022-01-29T21:55:48.336960","ECCENTRICITY":"0.00015320","APOAPSIS":"548.273","CLASSIFICATION_TYPE":"U"},{"ARG_OF_PERICENTER":"68.0034","TIME_SYSTEM":"UTC","REV_AT_EPOCH":"8298","RCS_SIZE":"LARGE","RA_OF_ASC_NODE":"9.3466","CENTER_NAME":"EARTH","COUNTRY_CODE":"US","MEAN_MOTION_DOT":"0.00002380","ECCENTRICITY":"0.00016260","APOAPSIS":"548.354","CLASSIFICATION_TYPE":"U","EPOCH":"2022-01-29T22:01:06.469536","TLE_LINE2":"2 46053  53.0549   9.3466 0001626  68.0034 292.1128 15.06395363 82983","EPHEMERIS_TYPE":"0","NORAD_CAT_ID":"46053","PERIOD":"95.592","MEAN_ANOMALY":"292.1128","DECAY_DATE":null,"MEAN_ELEMENT_THEORY":"SGP4","PERIAPSIS":"546.102","INCLINATION":"53.0549","MEAN_MOTION_DDOT":"0.0000000000000","SITE":"AFETR","SEMIMAJOR_AXIS":"6925.363","OBJECT_NAME":"STARLINK-1543","REF_FRAME":"TEME","GP_ID":"194910705","LAUNCH_DATE":"2020-08-07","FILE":"3287083","BSTAR":"0.00017863000000","TLE_LINE1":"1 46053U 20055AC  22029.91743599  .00002380  00000-0  17863-3 0  9993","OBJECT_TYPE":"PAYLOAD","MEAN_MOTION":"15.06395363","OBJECT_ID":"2020-055AC","ELEMENT_SET_NO":"999"}];
